CCSDS_OMM_VERS,COMMENT,CREATION_DATE,ORIGINATOR,OBJECT_NAME,OBJECT_ID,CENTER_NAME,REF_FRAME,TIME_SYSTEM,MEAN_ELEMENT_THEORY,EPOCH,MEAN_MOTION,ECCENTRICITY,INCLINATION,RA_OF_ASC_NODE,ARG_OF_PERICENTER,MEAN_ANOMALY,EPHEMERIS_TYPE,CLASSIFICATION_TYPE,NORAD_CAT_ID,ELEMENT_SET_NO,REV_AT_EPOCH,BSTAR,MEAN_MOTION_DOT,MEAN_MOTION_DDOT,SEMIMAJOR_AXIS,PERIOD,APOAPSIS,PERIAPSIS,OBJECT_TYPE,RCS_SIZE,COUNTRY_CODE,LAUNCH_DATE,SITE,DECAY_DATE,FILE,GP_ID,TLE_LINE0,TLE_LINE1,TLE_LINE2
"2.0","GENERATED VIA SPACE-TRACK.ORG API","2014-03-13T21:35:57","18 SPCS","PAYLOAD B","2013-037B","EARTH","TEME","UTC","SGP4","2014-03-13T19:08:25.353024","14.67427493","0.00040550","98.0450","91.3533","350.3486","9.7635","0","U","39209","999","3472","0.00012057000000","0.00000634","0.0000000000000","7047.434","98.130","672.156","666.441","PAYLOAD","LARGE","PRC","2013-07-19","TSC","","1648163","95402038","0 PAYLOAD B","1 39209U 13037B   14072.79751566  .00000634  00000-0  12057-3 0  9998","2 39209 098.0450 091.3533 0004055 350.3486 009.7635 14.67427493 34721"
"2.0","GENERATED VIA SPACE-TRACK.ORG API","2014-03-13T23:09:17","18 SPCS","PAYLOAD C","2013-037C","EARTH","TEME","UTC","SGP4","2014-03-13T20:10:38.659007","14.95431674","0.00326570","97.6845","91.2481","331.9595","27.9880","0","U","39210","999","3532","0.00013652000000","0.00001466","0.0000000000000","6959.174","96.293","603.766","558.313","PAYLOAD","LARGE","PRC","2013-07-19","TSC","","1648273","95404370","0 PAYLOAD C","1 39210U 13037C   14072.84072522  .00001466  00000-0  13652-3 0  9990","2 39210 097.6845 091.2481 0032657 331.9595 027.9880 14.95431674 35320"
"2.0","GENERATED VIA SPACE-TRACK.ORG API","2014-03-13T22:18:20","18 SPCS","PAYLOAD A","2013-037A","EARTH","TEME","UTC","SGP4","2014-03-13T21:10:02.462015","14.68041115","0.00084960","98.0460","91.7139","348.0036","12.0954","0","U","39208","999","3476","0.00012594000000","0.00000674","0.0000000000000","7045.470","98.089","673.320","661.349","PAYLOAD","LARGE","PRC","2013-07-19","TSC","","1648184","95402500","0 PAYLOAD A","1 39208U 13037A   14072.88197294  .00000674  00000-0  12594-3 0  9999","2 39208 098.0460 091.7139 0008496 348.0036 012.0954 14.68041115 34764"
"2.0","GENERATED VIA SPACE-TRACK.ORG API","2014-03-14T07:39:44","18 SPCS","PAYLOAD B","2013-037B","EARTH","TEME","UTC","SGP4","2014-03-14T03:19:22.267487","14.67428301","0.00039930","98.0448","91.6880","348.6756","11.4382","0","U","39209","999","3477","0.00012616000000","0.00000666","0.0000000000000","7047.431","98.130","672.110","666.482","PAYLOAD","LARGE","PRC","2013-07-19","TSC","","1648476","95407442","0 PAYLOAD B","1 39209U 13037B   14073.13845217  .00000666  00000-0  12616-3 0  9990","2 39209 098.0448 091.6880 0003993 348.6756 011.4382 14.67428301 34779"
"2.0","GENERATED VIA SPACE-TRACK.ORG API","2014-03-14T07:41:17","18 SPCS","PAYLOAD C","2013-037C","EARTH","TEME","UTC","SGP4","2014-03-14T04:12:24.431327","14.95433086","0.00326240","97.6844","91.5762","330.7888","29.1522","0","U","39210","999","3537","0.00014110000000","0.00001517","0.0000000000000","6959.170","96.293","603.738","558.331","PAYLOAD","LARGE","PRC","2013-07-19","TSC","","1648477","95407482","0 PAYLOAD C","1 39210U 13037C   14073.17528277  .00001517  00000-0  14110-3 0  9997","2 39210 097.6844 091.5762 0032624 330.7888 029.1522 14.95433086 35371"
"2.0","GENERATED VIA SPACE-TRACK.ORG API","2014-03-14T06:17:09","18 SPCS","PAYLOAD A","2013-037A","EARTH","TEME","UTC","SGP4","2014-03-14T05:20:47.056703","14.68041991","0.00085010","98.0458","92.0489","346.6718","13.4270","0","U","39208","999","3481","0.00013298000000","0.00000715","0.0000000000000","7045.467","98.089","673.321","661.342","PAYLOAD","LARGE","PRC","2013-07-19","TSC","","1648369","95404816","0 PAYLOAD A","1 39208U 13037A   14073.22276686  .00000715  00000-0  13298-3 0  9999","2 39208 098.0458 092.0489 0008501 346.6718 013.4270 14.68041991 34815"
"2.0","GENERATED VIA SPACE-TRACK.ORG API","2014-03-14T15:40:03","18 SPCS","PAYLOAD B","2013-037B","EARTH","TEME","UTC","SGP4","2014-03-14T11:30:19.116287","14.67429278","0.00039930","98.0451","92.0232","347.8787","12.2334","0","U","39209","999","3482","0.00013897000000","0.00000738","0.0000000000000","7047.428","98.130","672.107","666.479","PAYLOAD","LARGE","PRC","2013-07-19","TSC","","1648648","95410776","0 PAYLOAD B","1 39209U 13037B   14073.47938792  .00000738  00000-0  13897-3 0  9990","2 39209 098.0451 092.0232 0003993 347.8787 012.2334 14.67429278 34820"
"2.0","GENERATED VIA SPACE-TRACK.ORG API","2014-03-14T15:41:21","18 SPCS","PAYLOAD C","2013-037C","EARTH","TEME","UTC","SGP4","2014-03-14T12:14:10.163903","14.95434615","0.00325460","97.6843","91.9041","329.5998","30.3346","0","U","39210","999","3542","0.00014742000000","0.00001587","0.0000000000000","6959.165","96.293","603.679","558.381","PAYLOAD","LARGE","PRC","2013-07-19","TSC","","1648650","95410814","0 PAYLOAD C","1 39210U 13037C   14073.50983986  .00001587  00000-0  14742-3 0  9994","2 39210 097.6843 091.9041 0032546 329.5998 030.3346 14.95434615 35428"
"2.0","GENERATED VIA SPACE-TRACK.ORG API","2014-03-14T14:31:54","18 SPCS","PAYLOAD A","2013-037A","EARTH","TEME","UTC","SGP4","2014-03-14T13:31:31.619423","14.68043009","0.00084680","98.0462","92.3842","345.6329","14.4645","0","U","39208","999","3486","0.00015425000000","0.00000837","0.0000000000000","7045.463","98.089","673.295","661.362","PAYLOAD","LARGE","PRC","2013-07-19","TSC","","1648543","95408462","0 PAYLOAD A","1 39208U 13037A   14073.56356041  .00000837  00000-0  15425-3 0  9999","2 39208 098.0462 092.3842 0008468 345.6329 014.4645 14.68043009 34869"
"2.0","GENERATED VIA SPACE-TRACK.ORG API","2014-03-14T23:16:53","18 SPCS","PAYLOAD B","2013-037B","EARTH","TEME","UTC","SGP4","2014-03-14T19:41:16.001375","14.67429527","0.00039780","98.0449","92.3578","346.5208","13.5879","0","U","39209","999","3487","0.00013490000000","0.00000715","0.0000000000000","7047.427","98.130","672.095","666.489","PAYLOAD","LARGE","PRC","2013-07-19","TSC","","1648849","95413425","0 PAYLOAD B","1 39209U 13037B   14073.82032409  .00000715  00000-0  13490-3 0  9993","2 39209 098.0449 092.3578 0003978 346.5208 013.5879 14.67429527 34870"
"2.0","GENERATED VIA SPACE-TRACK.ORG API","2014-03-14T23:17:56","18 SPCS","PAYLOAD C","2013-037C","EARTH","TEME","UTC","SGP4","2014-03-14T20:15:55.932767","14.95435902","0.00324480","97.6842","92.2322","328.4641","31.4654","0","U","39210","999","3547","0.00015225000000","0.00001641","0.0000000000000","6959.161","96.292","603.607","558.445","PAYLOAD","LARGE","PRC","2013-07-19","TSC","","1648850","95413449","0 PAYLOAD C","1 39210U 13037C   14073.84439737  .00001641  00000-0  15225-3 0  9999","2 39210 097.6842 092.2322 0032448 328.4641 031.4654 14.95435902 35476"
"2.0","GENERATED VIA SPACE-TRACK.ORG API","2014-03-14T22:20:42","18 SPCS","PAYLOAD A","2013-037A","EARTH","TEME","UTC","SGP4","2014-03-14T21:42:16.231392","14.68042394","0.00084250","98.0459","92.7193","344.7160","15.3775","0","U","39208","999","3491","0.00011627000000","0.00000619","0.0000000000000","7045.465","98.089","673.266","661.395","PAYLOAD","LARGE","PRC","2013-07-19","TSC","","1648758","95411396","0 PAYLOAD A","1 39208U 13037A   14073.90435453  .00000619  00000-0  11627-3 0  9990","2 39208 098.0459 092.7193 0008425 344.7160 015.3775 14.68042394 34910"
"2.0","GENERATED VIA SPACE-TRACK.ORG API","2014-03-15T07:38:14","18 SPCS","PAYLOAD B","2013-037B","EARTH","TEME","UTC","SGP4","2014-03-15T02:14:01.504607","14.67430162","0.00039650","98.0447","92.6257","345.5015","14.6083","0","U","39209","999","3491","0.00013836000000","0.00000735","0.0000000000000","7047.425","98.130","672.084","666.496","PAYLOAD","LARGE","PRC","2013-07-19","TSC","","1649118","95416576","0 PAYLOAD B","1 39209U 13037B   14074.09307297  .00000735  00000-0  13836-3 0  9999","2 39209 098.0447 092.6257 0003965 345.5015 014.6083 14.67430162 34917"
"2.0","GENERATED VIA SPACE-TRACK.ORG API","2014-03-15T06:21:25","18 SPCS","PAYLOAD A","2013-037A","EARTH","TEME","UTC","SGP4","2014-03-15T04:14:51.918720","14.68042576","0.00084130","98.0458","92.9873","343.8005","16.2924","0","U","39208","999","3495","0.00011029000000","0.00000585","0.0000000000000","7045.465","98.089","673.257","661.403","PAYLOAD","LARGE","PRC","2013-07-19","TSC","","1649012","95413974","0 PAYLOAD A","1 39208U 13037A   14074.17698980  .00000585  00000-0  11029-3 0  9994","2 39208 098.0458 092.9873 0008413 343.8005 016.2924 14.68042576 34953"
"2.0","GENERATED VIA SPACE-TRACK.ORG API","2014-03-15T07:39:46","18 SPCS","PAYLOAD C","2013-037C","EARTH","TEME","UTC","SGP4","2014-03-15T04:17:41.619552","14.95437426","0.00324230","97.6841","92.5602","327.2369","32.6858","0","U","39210","999","3552","0.00015736000000","0.00001698","0.0000000000000","6959.156","96.292","603.585","558.458","PAYLOAD","LARGE","PRC","2013-07-19","TSC","","1649120","95416629","0 PAYLOAD C","1 39210U 13037C   14074.17895393  .00001698  00000-0  15736-3 0  9999","2 39210 097.6841 092.5602 0032423 327.2369 032.6858 14.95437426 35524"
"2.0","GENERATED VIA SPACE-TRACK.ORG API","2014-03-15T15:29:37","18 SPCS","PAYLOAD B","2013-037B","EARTH","TEME","UTC","SGP4","2014-03-15T10:24:58.347359","14.67430888","0.00039440","98.0448","92.9606","344.4587","15.6503","0","U","39209","999","3496","0.00014177000000","0.00000754","0.0000000000000","7047.423","98.130","672.067","666.508","PAYLOAD","LARGE","PRC","2013-07-19","TSC","","1649269","95419572","0 PAYLOAD B","1 39209U 13037B   14074.43400865  .00000754  00000-0  14177-3 0  9992","2 39209 098.0448 092.9606 0003944 344.4587 015.6503 14.67430888 34966"
